[{"OBJECT_NAME":"NANOSATC-BR1","OBJECT_ID":"2014-033Q","EPOCH":"2026-03-09T23:35:03.168384","MEAN_MOTION":15.28136801,"ECCENTRICITY":0.00046435,"INCLINATION":98.0845,"RA_OF_ASC_NODE":92.7804,"ARG_OF_PERICENTER":147.6715,"MEAN_ANOMALY":212.4808,"EPHEMERIS_TYPE":0,"CLASSIFICATION_TYPE":"U","NORAD_CAT_ID":40024,"ELEMENT_SET_NO":999,"REV_AT_EPOCH":63881,"BSTAR":0.00074295057,"MEAN_MOTION_DOT":0.00020336,"MEAN_MOTION_DDOT":0},{"OBJECT_NAME":"STARLINK-31278","OBJECT_ID":"2024-044M","EPOCH":"2026-03-09T12:44:23.591904","MEAN_MOTION":15.27566797,"ECCENTRICITY":0.00019948,"INCLINATION":43.0038,"RA_OF_ASC_NODE":107.7183,"ARG_OF_PERICENTER":287.1664,"MEAN_ANOMALY":72.8969,"EPHEMERIS_TYPE":0,"CLASSIFICATION_TYPE":"U","NORAD_CAT_ID":59163,"ELEMENT_SET_NO":999,"REV_AT_EPOCH":11354,"BSTAR":5.1076473e-5,"MEAN_MOTION_DOT":1.143e-5,"MEAN_MOTION_DDOT":0}]
